SL-3 R/B                
1 13403U 82079B   26071.29176721  .00007413  00000+0  29480-3 0  9998
2 13403  81.1476 190.0050 0025157 156.0042 204.2370 15.24843438378090
SL-14 R/B               
1 13553U 82092B   26071.26892291  .00000544  00000+0  58418-4 0  9995
2 13553  82.5690 138.9872 0018889 294.3272 129.1818 14.86669232329315
SL-3 R/B                
1 13819U 83010B   26071.28453220  .00018399  00000+0  36815-3 0  9991
2 13819  81.1061 359.0661 0017757  42.6261 317.6358 15.46460028358341
SL-3 R/B                
1 14208U 83075B   26071.22376057  .00012457  00000+0  32794-3 0  9992
2 14208  97.6146  75.8970 0020362 216.2304 143.7563 15.38485174330547
COSMOS 1536             
1 14699U 84013A   26071.14954389  .00006724  00000+0  27694-3 0  9993
2 14699  82.5429 105.4050 0012529 273.6666  86.3138 15.23862176272990
SL-14 R/B               
1 14820U 84027B   26070.98261430  .00000572  00000+0  62610-4 0  9996
2 14820  82.5389 242.8615 0017186 330.0492  29.9739 14.85978988247979
SL-8 R/B                
1 15483U 85006B   26070.96351259  .00000358  00000+0  12719-3 0  9993
2 15483  74.0432 256.9639 0018363 174.2338 295.6293 14.37784706154353
SL-12 R/B(2)            
1 15772U 85042D   26071.30285633  .00000155  00000+0  91005-4 0  9996
2 15772  71.1063  82.2072 0033121 123.8396 327.4127 14.21983167114762
SL-14 R/B               
1 15945U 85069B   26071.30328720  .00000689  00000+0  75042-4 0  9997
2 15945  82.5289  22.4756 0018710 178.9744 181.1515 14.86436837173220
SL-16 R/B               
1 16182U 85097B   26071.31817400 -.00000142  00000+0 -47251-4 0  9998
2 16182  71.0023 135.0211 0009849 256.5609 171.4207 14.16598273 87608
SL-14 R/B               
1 16496U 86006B   26071.01047511  .00000746  00000+0  76876-4 0  9995
2 16496  82.5236 257.5523 0075056 264.9426  94.3220 14.86818268149555
COSMOS 1743             
1 16719U 86034A   26071.01749648  .00034559  00000+0  44742-3 0  9999
2 16719  82.5293  71.3874 0001486 269.8959  90.2126 15.58731417180610
